{
  "type": "FeatureCollection",
  "features": [
    {
      "type": "Feature",
      "properties": {
        "norad_id": 28054,
        "name": "DMSP 5D-3 F16 (USA 172)",
        "group": "weather",
        "lat": 28.919618586378796,
        "lon": -157.46833836756346,
        "alt_km": 845.5922360607492,
        "timestamp": "2025-12-25T22:42:16.639223+00:00",
        "meta_object_name": "DMSP 5D-3 F16 (USA 172)",
        "meta_object_id": "2003-048A",
        "meta_epoch": "2025-12-25T17:33:28.713312",
        "meta_mean_motion": 14.14428688,
        "meta_eccentricity": 0.0006242,
        "meta_inclination": 99.0038,
        "meta_ra_of_asc_node": 17.2902,
        "meta_arg_of_pericenter": 279.0952,
        "meta_mean_anomaly": 220.2204,
        "meta_ephemeris_type": 0,
        "meta_classification_type": "U",
        "meta_norad_cat_id": 28054,
        "meta_element_set_no": 999,
        "meta_rev_at_epoch": 14496,
        "meta_bstar": 8.0066e-05,
        "meta_mean_motion_dot": 1.08e-06,
        "meta_mean_motion_ddot": 0,
        "tle_line1": "1 28054U 03048A   25359.73158233  .00000108  00000+0  80066-4 0  9992",
        "tle_line2": "2 28054  99.0038  17.2902 0006242 279.0952 220.2204 14.14428688144961"
      },
      "geometry": {
        "type": "Point",
        "coordinates": [
          -157.46833836756346,
          28.919618586378796
        ]
      }
    },
    {
      "type": "Feature",
      "properties": {
        "norad_id": 28912,
        "name": "METEOSAT-9 (MSG-2)",
        "group": "weather",
        "lat": 8.111190043264331,
        "lon": 120.29783676000454,
        "alt_km": 36025.64358159947,
        "timestamp": "2025-12-25T22:42:16.639289+00:00",
        "meta_object_name": "METEOSAT-9 (MSG-2)",
        "meta_object_id": "2005-049B",
        "meta_epoch": "2025-12-24T18:27:10.310976",
        "meta_mean_motion": 1.00268275,
        "meta_eccentricity": 0.00719695,
        "meta_inclination": 8.9553,
        "meta_ra_of_asc_node": 55.846,
        "meta_arg_of_pericenter": 282.2974,
        "meta_mean_anomaly": 77.0088,
        "meta_ephemeris_type": 0,
        "meta_classification_type": "U",
        "meta_norad_cat_id": 28912,
        "meta_element_set_no": 999,
        "meta_rev_at_epoch": 524,
        "meta_bstar": 0,
        "meta_mean_motion_dot": 1.45e-06,
        "meta_mean_motion_ddot": 0,
        "tle_line1": "1 28912U 05049B   25358.76886934  .00000145  00000+0  00000+0 0  9992",
        "tle_line2": "2 28912   8.9553  55.8460 0071969 282.2974  77.0088  1.00268275  5240"
      },
      "geometry": {
        "type": "Point",
        "coordinates": [
          120.29783676000454,
          8.111190043264331
        ]
      }
    },
    {
      "type": "Feature",
      "properties": {
        "norad_id": 29522,
        "name": "DMSP 5D-3 F17 (USA 191)",
        "group": "weather",
        "lat": 64.35587223127891,
        "lon": -156.25185672749777,
        "alt_km": 833.9588129838967,
        "timestamp": "2025-12-25T22:42:16.639307+00:00",
        "meta_object_name": "DMSP 5D-3 F17 (USA 191)",
        "meta_object_id": "2006-050A",
        "meta_epoch": "2025-12-25T17:04:29.871840",
        "meta_mean_motion": 14.14924949,
        "meta_eccentricity": 0.0009964,
        "meta_inclination": 98.7393,
        "meta_ra_of_asc_node": 4.8304,
        "meta_arg_of_pericenter": 186.2751,
        "meta_mean_anomaly": 173.8299,
        "meta_ephemeris_type": 0,
        "meta_classification_type": "U",
        "meta_norad_cat_id": 29522,
        "meta_element_set_no": 999,
        "meta_rev_at_epoch": 98788,
        "meta_bstar": 0.00010413,
        "meta_mean_motion_dot": 1.58e-06,
        "meta_mean_motion_ddot": 0,
        "tle_line1": "1 29522U 06050A   25359.71145685  .00000158  00000+0  10413-3 0  9997",
        "tle_line2": "2 29522  98.7393   4.8304 0009964 186.2751 173.8299 14.14924949987884"
      },
      "geometry": {
        "type": "Point",
        "coordinates": [
          -156.25185672749777,
          64.35587223127891
        ]
      }
    },
    {
      "type": "Feature",
      "properties": {
        "norad_id": 32958,
        "name": "FENGYUN 3A",
        "group": "weather",
        "lat": 45.64111547947708,
        "lon": -69.78259944574265,
        "alt_km": 827.1118000819379,
        "timestamp": "2025-12-25T22:42:16.639321+00:00",
        "meta_object_name": "FENGYUN 3A",
        "meta_object_id": "2008-026A",
        "meta_epoch": "2025-12-25T19:06:13.205088",
        "meta_mean_motion": 14.19518673,
        "meta_eccentricity": 0.0007611,
        "meta_inclination": 98.6714,
        "meta_ra_of_asc_node": 299.0489,
        "meta_arg_of_pericenter": 268.0432,
        "meta_mean_anomaly": 91.9873,
        "meta_ephemeris_type": 0,
        "meta_classification_type": "U",
        "meta_norad_cat_id": 32958,
        "meta_element_set_no": 999,
        "meta_rev_at_epoch": 91080,
        "meta_bstar": 8.6704e-05,
        "meta_mean_motion_dot": 1.39e-06,
        "meta_mean_motion_ddot": 0,
        "tle_line1": "1 32958U 08026A   25359.79598617  .00000139  00000+0  86704-4 0  9990",
        "tle_line2": "2 32958  98.6714 299.0489 0007611 268.0432  91.9873 14.19518673910805"
      },
      "geometry": {
        "type": "Point",
        "coordinates": [
          -69.78259944574265,
          45.64111547947708
        ]
      }
    },
    {
      "type": "Feature",
      "properties": {
        "norad_id": 35491,
        "name": "GOES 14",
        "group": "weather",
        "lat": -0.9894534127288429,
        "lon": -42.81409547640313,
        "alt_km": 35832.88983185497,
        "timestamp": "2025-12-25T22:42:16.639335+00:00",
        "meta_object_name": "GOES 14",
        "meta_object_id": "2009-033A",
        "meta_epoch": "2025-12-25T15:55:40.730304",
        "meta_mean_motion": 1.00097035,
        "meta_eccentricity": 7.19e-05,
        "meta_inclination": 1.2354,
        "meta_ra_of_asc_node": 85.272,
        "meta_arg_of_pericenter": 193.0437,
        "meta_mean_anomaly": 297.1266,
        "meta_ephemeris_type": 0,
        "meta_classification_type": "U",
        "meta_norad_cat_id": 35491,
        "meta_element_set_no": 999,
        "meta_rev_at_epoch": 485,
        "meta_bstar": 0,
        "meta_mean_motion_dot": 3.9e-07,
        "meta_mean_motion_ddot": 0,
        "tle_line1": "1 35491U 09033A   25359.66366586  .00000039  00000+0  00000+0 0  9997",
        "tle_line2": "2 35491   1.2354  85.2720 0000719 193.0437 297.1266  1.00097035  4852"
      },
      "geometry": {
        "type": "Point",
        "coordinates": [
          -42.81409547640313,
          -0.9894534127288429
        ]
      }
    },
    {
      "type": "Feature",
      "properties": {
        "norad_id": 35951,
        "name": "DMSP 5D-3 F18 (USA 210)",
        "group": "weather",
        "lat": -25.13163186029953,
        "lon": -19.51014142683225,
        "alt_km": 843.5332971912103,
        "timestamp": "2025-12-25T22:42:16.639348+00:00",
        "meta_object_name": "DMSP 5D-3 F18 (USA 210)",
        "meta_object_id": "2009-057A",
        "meta_epoch": "2025-12-25T17:43:57.012384",
        "meta_mean_motion": 14.1477775,
        "meta_eccentricity": 0.0011673,
        "meta_inclination": 98.885,
        "meta_ra_of_asc_node": 336.0755,
        "meta_arg_of_pericenter": 28.3685,
        "meta_mean_anomaly": 331.8122,
        "meta_ephemeris_type": 0,
        "meta_classification_type": "U",
        "meta_norad_cat_id": 35951,
        "meta_element_set_no": 999,
        "meta_rev_at_epoch": 83506,
        "meta_bstar": 0.00017187,
        "meta_mean_motion_dot": 2.87e-06,
        "meta_mean_motion_ddot": 0,
        "tle_line1": "1 35951U 09057A   25359.73885431  .00000287  00000+0  17187-3 0  9990",
        "tle_line2": "2 35951  98.8850 336.0755 0011673  28.3685 331.8122 14.14777750835067"
      },
      "geometry": {
        "type": "Point",
        "coordinates": [
          -19.51014142683225,
          -25.13163186029953
        ]
      }
    },
    {
      "type": "Feature",
      "properties": {
        "norad_id": 36411,
        "name": "EWS-G2 (GOES 15)",
        "group": "weather",
        "lat": 0.6677520325909786,
        "lon": 136.55891458123133,
        "alt_km": 35801.06827507444,
        "timestamp": "2025-12-25T22:42:16.639363+00:00",
        "meta_object_name": "EWS-G2 (GOES 15)",
        "meta_object_id": "2010-008A",
        "meta_epoch": "2025-12-25T15:11:31.632000",
        "meta_mean_motion": 1.00271095,
        "meta_eccentricity": 0.0005603,
        "meta_inclination": 0.8435,
        "meta_ra_of_asc_node": 86.0673,
        "meta_arg_of_pericenter": 179.344,
        "meta_mean_anomaly": 118.2117,
        "meta_ephemeris_type": 0,
        "meta_classification_type": "U",
        "meta_norad_cat_id": 36411,
        "meta_element_set_no": 999,
        "meta_rev_at_epoch": 5789,
        "meta_bstar": 0,
        "meta_mean_motion_dot": 6e-07,
        "meta_mean_motion_ddot": 0,
        "tle_line1": "1 36411U 10008A   25359.63300500  .00000060  00000+0  00000+0 0  9999",
        "tle_line2": "2 36411   0.8435  86.0673 0005603 179.3440 118.2117  1.00271095 57894"
      },
      "geometry": {
        "type": "Point",
        "coordinates": [
          136.55891458123133,
          0.6677520325909786
        ]
      }
    }
  ]
}